QIANFAN-41              
1 62242U 24232F   25353.79820615  .00000102  00000+0  13913-3 0  9997
2 62242  89.0018  40.4853 0014808 163.7750 196.3878 13.50979544100200
QIANFAN-42              
1 62243U 24232G   25353.79729916  .00000280  00000+0  11447-3 0  9997
2 62243  89.0008  36.5512 0016978  66.2475 294.0496 14.24491870102374
QIANFAN-43              
1 62244U 24232H   25353.79404883  .00000098  00000+0  13289-3 0  9994
2 62244  89.0023  40.5514 0016144 169.4245 190.7249 13.50978413 68814
QIANFAN-44              
1 62245U 24232J   25353.78174866  .00000087  00000+0  11549-3 0  9994
2 62245  89.0021  40.3633 0014461 165.8147 194.3413 13.50980677100280
QIANFAN-45              
1 62246U 24232K   25353.74881733  .00000090  00000+0  12013-3 0  9990
2 62246  89.0024  40.5134 0015127 165.9050 194.2527 13.50976628100204
QIANFAN-46              
1 62247U 24232L   25353.77348747 -.00000011  00000+0 -36176-4 0  9999
2 62247  89.0018  40.5794 0014967 171.3493 188.7919 13.50978392100161
QIANFAN-47              
1 62248U 24232M   25353.77764377  .00000087  00000+0  11583-3 0  9996
2 62248  89.0016  40.5119 0015452 170.4905 189.6542 13.50978773100197
QIANFAN-48              
1 62249U 24232N   25353.81464997  .00000078  00000+0  10172-3 0  9990
2 62249  89.0020  40.5103 0017616 173.8235 186.3137 13.50980526100208
